     2.100          NAVIGATION                              RINEX VERSION / TYPE
fic2rin                                 10/10/2017 00:10:45 PGM / RUN BY / DATE
                                                            END OF HEADER
11 17 10  9 18  0  0.0 -.720344018191D-03 -.204636307899D-11  .000000000000D+00
     .121000000000D+03 -.299062500000D+02  .557487507307D-08 -.286061809291D+01
    -.159442424774D-05  .170479207300D-01  .106450170279D-04  .515373886108D+04
     .151200000000D+06  .236555933952D-06  .974925561334D+00  .162050127983D-06
     .902370901564D+00  .135718750000D+03  .170474168399D+01 -.825712965688D-08
     .508949771229D-09  .100000000000D+01  .197000000000D+04  .000000000000D+00
     .340000000000D+01  .000000000000D+00 -.121071934700D-07  .121000000000D+03
     .144006000000D+06  .400000000000D+01
12 17 10  9 18  0  0.0  .369794666767D-03 -.147792889038D-11  .000000000000D+00
     .400000000000D+02 -.422500000000D+02  .399980946526D-08  .279694951501D+01
    -.219605863094D-05  .653420470189D-02  .274926424026D-05  .515370590210D+04
     .151200000000D+06  .558793544769D-07 -.652468102075D+00 -.819563865662D-07
     .988426002813D+00  .339062500000D+03  .912856236698D+00 -.801569102856D-08
    -.113219001740D-09  .100000000000D+01  .197000000000D+04  .000000000000D+00
     .240000000000D+01  .000000000000D+00 -.125728547573D-07  .400000000000D+02
     .144006000000D+06  .400000000000D+01
13 17 10  9 18  0  0.0 -.925576314330D-04 -.454747350886D-12  .000000000000D+00
     .300000000000D+02  .300312500000D+02  .416374486526D-08 -.161723072031D+01
     .143051147461D-05  .353829772212D-02  .110995024443D-04  .515366457176D+04
     .151200000000D+06 -.409781932831D-07 -.269046791537D+01  .149011611938D-06
     .969500086793D+00  .169562500000D+03  .172296250714D+01 -.780282501898D-08
    -.447518640948D-09  .100000000000D+01  .197000000000D+04  .000000000000D+00
     .240000000000D+01  .000000000000D+00 -.111758708954D-07  .300000000000D+02
     .144006000000D+06  .400000000000D+01
14 17 10  9 18  0  0.0 -.857994891703D-04 -.909494701773D-12  .000000000000D+00
     .340000000000D+02  .335625000000D+02  .445197115675D-08 -.357779458288D+00
     .172667205334D-05  .931320758536D-02  .116620212793D-04  .515370745277D+04
     .151200000000D+06 -.391155481339D-07 -.273081807941D+01  .428408384323D-07
     .962045609244D+00  .157000000000D+03 -.194920137638D+01 -.809319425688D-08
    -.499306512406D-09  .100000000000D+01  .197000000000D+04  .000000000000D+00
     .240000000000D+01  .000000000000D+00 -.977888703346D-08  .340000000000D+02
     .144006000000D+06  .400000000000D+01
15 17 10  9 18  0  0.0 -.356496311724D-03 -.227373675443D-12  .000000000000D+00
     .330000000000D+02  .615625000000D+01  .520164524083D-08 -.884018948286D+00
     .286847352982D-06  .971469678916D-02  .103563070297D-04  .515362794685D+04
     .151200000000D+06  .212341547012D-06 -.288361239289D+01  .163912773132D-06
     .929209981394D+00  .163031250000D+03  .614461699573D+00 -.832891836145D-08
    -.513592821774D-09  .100000000000D+01  .197000000000D+04  .000000000000D+00
     .240000000000D+01  .000000000000D+00 -.107102096081D-07  .330000000000D+02
     .144006000000D+06  .400000000000D+01
17 17 10  9 18  0  0.0 -.151999760419D-03  .227373675443D-11  .000000000000D+00
     .300000000000D+02 -.821562500000D+02  .394802159380D-08 -.453523534733D-01
    -.442378222942D-05  .119438840775D-01  .975653529167D-05  .515369992638D+04
     .151200000000D+06 -.191852450371D-06  .382400574370D+00  .117346644402D-06
     .981319872392D+00  .206875000000D+03 -.184131119876D+01 -.796497463031D-08
     .528593446610D-10  .100000000000D+01  .197000000000D+04  .000000000000D+00
     .240000000000D+01  .000000000000D+00 -.111758708954D-07  .300000000000D+02
     .144006000000D+06  .400000000000D+01
18 17 10  9 18  0  0.0  .631046947092D-03  .568434188608D-12  .000000000000D+00
     .320000000000D+02 -.215937500000D+02  .591988944430D-08  .143946410117D+01
    -.139884650707D-05  .181438167347D-01  .571645796299D-05  .515362358093D+04
     .151200000000D+06 -.312924385071D-06  .237899401433D+01 -.389292836189D-06
     .926007919970D+00  .255468750000D+03 -.177838811367D+01 -.884536844510D-08
    -.896465912832D-10  .100000000000D+01  .197000000000D+04  .000000000000D+00
     .240000000000D+01  .000000000000D+00 -.111758708954D-07  .320000000000D+02
     .144006000000D+06  .400000000000D+01
19 17 10  9 18  0  0.0 -.482067000121D-03  .204636307899D-11  .000000000000D+00
     .115000000000D+03 -.841250000000D+02  .386587531494D-08  .293641761031D+01
    -.443868339062D-05  .995480059646D-02  .100545585155D-04  .515368895531D+04
     .151200000000D+06  .167638063431D-07  .429887164400D+00 -.134110450745D-06
     .978649330067D+00  .194781250000D+03  .107873212749D+01 -.759674500635D-08
     .642883921553D-10  .100000000000D+01  .197000000000D+04  .000000000000D+00
     .240000000000D+01  .000000000000D+00 -.153668224812D-07  .115000000000D+03
     .144006000000D+06  .400000000000D+01
20 17 10  9 18  0  0.0  .489187892526D-03  .113686837722D-11  .000000000000D+00
     .290000000000D+02 -.123437500000D+02  .585095800160D-08 -.104571533333D+01
    -.527128577232D-06  .459147628862D-02  .532343983650D-05  .515373449898D+04
     .151200000000D+06 -.100582838058D-06  .232784051334D+01 -.186264514923D-08
     .927360807591D+00  .259781250000D+03  .168286676650D+01 -.877857994881D-08
    -.817891211309D-10  .100000000000D+01  .197000000000D+04  .000000000000D+00
     .240000000000D+01  .000000000000D+00 -.838190317154D-08  .290000000000D+02
     .144006000000D+06  .400000000000D+01
21 17 10  9 18  0  0.0 -.472581479698D-03  .318323145621D-11  .000000000000D+00
     .400000000000D+02  .831250000000D+01  .493270546698D-08  .234119797067D+01
     .301748514175D-06  .239834632957D-01  .963173806667D-05  .515359057236D+04
     .151200000000D+06  .290572643280D-06  .133878240118D+01 -.119209289551D-06
     .940862249706D+00  .179875000000D+03 -.163457072341D+01 -.780603943859D-08
     .547165648788D-09  .100000000000D+01  .197000000000D+04  .000000000000D+00
     .240000000000D+01  .000000000000D+00 -.977888703346D-08  .400000000000D+02
     .144006000000D+06  .400000000000D+01
22 17 10  9 18  0  0.0 -.149277970195D-03 -.127329258248D-10  .000000000000D+00
     .380000000000D+02 -.113750000000D+02  .594024743515D-08 -.694198242589D+00
    -.571832060814D-06  .721445819363D-02  .585615634918D-05  .515369785118D+04
     .151200000000D+06 -.135973095894D-06  .237860742506D+01  .745058059692D-08
     .924101503645D+00  .247187500000D+03 -.166911147884D+01 -.888215569172D-08
    -.621454457501D-10  .100000000000D+01  .197000000000D+04  .000000000000D+00
     .240000000000D+01  .000000000000D+00 -.176951289177D-07  .380000000000D+02
     .144006000000D+06  .400000000000D+01
23 17 10  9 18  0  0.0 -.217989087105D-03 -.227373675443D-12  .000000000000D+00
     .340000000000D+02  .127500000000D+02  .478091342995D-08 -.142169874879D+01
     .558793544769D-06  .118670635857D-01  .109151005745D-04  .515367203140D+04
     .151200000000D+06  .236555933952D-06 -.281812438816D+01 -.119209289551D-06
     .944456548726D+00  .157625000000D+03 -.241972244217D+01 -.800890503161D-08
    -.463590738987D-09  .100000000000D+01  .197000000000D+04  .000000000000D+00
     .240000000000D+01  .000000000000D+00 -.204890966415D-07  .340000000000D+02
     .144006000000D+06  .400000000000D+01
24 17 10  9 18  0  0.0 -.406759791076D-04 -.454747350886D-12  .000000000000D+00
     .330000000000D+02  .111718750000D+03  .479519973932D-08 -.194604496678D+01
     .585056841373D-05  .602697837166D-02  .682286918163D-05  .515367399597D+04
     .151200000000D+06 -.596046447754D-07 -.179605375795D+01 -.614672899246D-07
     .943748164293D+00  .241625000000D+03  .469057534746D+00 -.820677041636D-08
     .182150444440D-09  .100000000000D+01  .197000000000D+04  .000000000000D+00
     .240000000000D+01  .000000000000D+00  .279396772385D-08  .330000000000D+02
     .144006000000D+06  .400000000000D+01
25 17 10  9 18  0  0.0 -.469898805022D-03 -.636646291241D-11  .000000000000D+00
     .350000000000D+02 -.305625000000D+02  .431553690229D-08  .236552617983D+01
    -.161118805408D-05  .658458471298D-02  .242702662945D-05  .515374208641D+04
     .151200000000D+06 -.353902578354D-07 -.709399061547D+00 -.188127160072D-06
     .976200933316D+00  .340437500000D+03  .819416169915D+00 -.827034449304D-08
    -.657170230921D-10  .100000000000D+01  .197000000000D+04  .000000000000D+00
     .240000000000D+01  .000000000000D+00  .558793544769D-08  .350000000000D+02
     .144006000000D+06  .400000000000D+01
26 17 10  9 18  0  0.0 -.401952303946D-03  .118234311230D-10  .000000000000D+00
     .340000000000D+02 -.234375000000D+02  .482805825086D-08  .181277387292D+01
    -.117532908916D-05  .197281828150D-02  .181607902050D-05  .515377905846D+04
     .151200000000D+06 -.502914190292D-07 -.727215035288D+00 -.130385160446D-07
     .957871972721D+00  .343281250000D+03 -.398595773857D-01 -.858678624554D-08
    -.109647424398D-09  .100000000000D+01  .197000000000D+04  .000000000000D+00
     .240000000000D+01  .000000000000D+00  .745058059692D-08  .340000000000D+02
     .144006000000D+06  .400000000000D+01
27 17 10  9 18  0  0.0  .335146207362D-03  .443378667114D-11  .000000000000D+00
     .310000000000D+02 -.109281250000D+03  .402266756025D-08 -.126681786062D-01
    -.559352338314D-05  .496241322253D-02  .991672277451D-05  .515367853737D+04
     .151200000000D+06  .115483999252D-06  .329681306310D+00  .484287738800D-07
     .976180980576D+00  .197531250000D+03  .386471395548D+00 -.795926010656D-08
    -.464305054455D-10  .100000000000D+01  .197000000000D+04  .000000000000D+00
     .240000000000D+01  .000000000000D+00  .139698386192D-08  .310000000000D+02
     .144006000000D+06  .400000000000D+01
